{
  "links" : {
    "next" : "https://api.nasa.gov/neo/rest/v1/feed?start_date=2015-07-23&end_date=2015-07-23&detailed=true&api_key=t0TVs3DtDT2H8Oy2Zy8m2eVrNsAVKAexjcZXUckd",
    "prev" : "https://api.nasa.gov/neo/rest/v1/feed?start_date=2015-07-21&end_date=2015-07-21&detailed=true&api_key=t0TVs3DtDT2H8Oy2Zy8m2eVrNsAVKAexjcZXUckd",
    "self" : "https://api.nasa.gov/neo/rest/v1/feed?start_date=2015-07-22&end_date=2015-07-22&detailed=true&api_key=t0TVs3DtDT2H8Oy2Zy8m2eVrNsAVKAexjcZXUckd"
  },
  "element_count" : 7,
  "near_earth_objects" : {
    "2015-07-22" : [ {
      "links" : {
        "self" : "https://api.nasa.gov/neo/rest/v1/neo/3092390?api_key=t0TVs3DtDT2H8Oy2Zy8m2eVrNsAVKAexjcZXUckd"
      },
      "neo_reference_id" : "3092390",
      "name" : "(2001 UP)",
      "nasa_jpl_url" : "http://ssd.jpl.nasa.gov/sbdb.cgi?sstr=3092390",
      "absolute_magnitude_h" : 25.7,
      "estimated_diameter" : {
        "kilometers" : {
          "estimated_diameter_min" : 0.0192555078,
          "estimated_diameter_max" : 0.0430566244
        },
        "meters" : {
          "estimated_diameter_min" : 19.2555078188,
          "estimated_diameter_max" : 43.0566244241
        },
        "miles" : {
          "estimated_diameter_min" : 0.0119648141,
          "estimated_diameter_max" : 0.0267541378
        },
        "feet" : {
          "estimated_diameter_min" : 63.1742402722,
          "estimated_diameter_max" : 141.2618956756
        }
      },
      "is_potentially_hazardous_asteroid" : false,
      "close_approach_data" : [ {
        "close_approach_date" : "2015-07-22",
        "epoch_date_close_approach" : 1437548400000,
        "relative_velocity" : {
          "kilometers_per_second" : "16.905801329",
          "kilometers_per_hour" : "60860.8847845782",
          "miles_per_hour" : "37816.5869929508"
        },
        "miss_distance" : {
          "astronomical" : "0.332819481",
          "lunar" : "129.4667816162",
          "kilometers" : "49789088",
          "miles" : "30937504"
        },
        "orbiting_body" : "Earth"
      } ],
      "orbital_data" : {
        "orbit_id" : "18",
        "orbit_determination_date" : "2017-04-06 09:15:59",
        "orbit_uncertainty" : "3",
        "minimum_orbit_intersection" : ".00650921",
        "jupiter_tisserand_invariant" : "6.673",
        "epoch_osculation" : "2458000.5",
        "eccentricity" : ".2871313370063317",
        "semi_major_axis" : ".883302607323854",
        "inclination" : "7.695931344138224",
        "ascending_node_longitude" : "25.46851988641133",
        "orbital_period" : "303.2233876631826",
        "perihelion_distance" : ".629678748701777",
        "perihelion_argument" : "133.3619882539188",
        "aphelion_distance" : "1.136926465945931",
        "perihelion_time" : "2458058.315226487622",
        "mean_anomaly" : "291.3592473986104",
        "mean_motion" : "1.187243513023093",
        "equinox" : "J2000"
      }
    }, {
      "links" : {
        "self" : "https://api.nasa.gov/neo/rest/v1/neo/3607683?api_key=t0TVs3DtDT2H8Oy2Zy8m2eVrNsAVKAexjcZXUckd"
      },
      "neo_reference_id" : "3607683",
      "name" : "(2012 PO28)",
      "nasa_jpl_url" : "http://ssd.jpl.nasa.gov/sbdb.cgi?sstr=3607683",
      "absolute_magnitude_h" : 22.0,
      "estimated_diameter" : {
        "kilometers" : {
          "estimated_diameter_min" : 0.1058168859,
          "estimated_diameter_max" : 0.2366137501
        },
        "meters" : {
          "estimated_diameter_min" : 105.8168859331,
          "estimated_diameter_max" : 236.6137501138
        },
        "miles" : {
          "estimated_diameter_min" : 0.0657515442,
          "estimated_diameter_max" : 0.1470249225
        },
        "feet" : {
          "estimated_diameter_min" : 347.1682720448,
          "estimated_diameter_max" : 776.2918559233
        }
      },
      "is_potentially_hazardous_asteroid" : false,
      "close_approach_data" : [ {
        "close_approach_date" : "2015-07-22",
        "epoch_date_close_approach" : 1437548400000,
        "relative_velocity" : {
          "kilometers_per_second" : "1.911681031",
          "kilometers_per_hour" : "6882.0517115808",
          "miles_per_hour" : "4276.239298232"
        },
        "miss_distance" : {
          "astronomical" : "0.2763449955",
          "lunar" : "107.4981994629",
          "kilometers" : "41340620",
          "miles" : "25687872"
        },
        "orbiting_body" : "Earth"
      } ],
      "orbital_data" : {
        "orbit_id" : "23",
        "orbit_determination_date" : "2017-04-06 08:49:17",
        "orbit_uncertainty" : "0",
        "minimum_orbit_intersection" : ".273535",
        "jupiter_tisserand_invariant" : "3.658",
        "epoch_osculation" : "2458000.5",
        "eccentricity" : ".3859645619458195",
        "semi_major_axis" : "2.088532450205282",
        "inclination" : "3.589476805005745",
        "ascending_node_longitude" : "176.6912771380672",
        "orbital_period" : "1102.453468116475",
        "perihelion_distance" : "1.282432937952171",
        "perihelion_argument" : "118.8713828741054",
        "aphelion_distance" : "2.894631962458393",
        "perihelion_time" : "2458321.848319381909",
        "mean_anomaly" : "255.0655076852049",
        "mean_motion" : ".3265443943090446",
        "equinox" : "J2000"
      }
    }, {
      "links" : {
        "self" : "https://api.nasa.gov/neo/rest/v1/neo/3653683?api_key=t0TVs3DtDT2H8Oy2Zy8m2eVrNsAVKAexjcZXUckd"
      },
      "neo_reference_id" : "3653683",
      "name" : "(2013 VC13)",
      "nasa_jpl_url" : "http://ssd.jpl.nasa.gov/sbdb.cgi?sstr=3653683",
      "absolute_magnitude_h" : 19.1,
      "estimated_diameter" : {
        "kilometers" : {
          "estimated_diameter_min" : 0.4023045798,
          "estimated_diameter_max" : 0.8995803882
        },
        "meters" : {
          "estimated_diameter_min" : 402.3045798343,
          "estimated_diameter_max" : 899.5803881691
        },
        "miles" : {
          "estimated_diameter_min" : 0.2499803991,
          "estimated_diameter_max" : 0.5589731654
        },
        "feet" : {
          "estimated_diameter_min" : 1319.8969577037,
          "estimated_diameter_max" : 2951.3793207207
        }
      },
      "is_potentially_hazardous_asteroid" : false,
      "close_approach_data" : [ {
        "close_approach_date" : "2015-07-22",
        "epoch_date_close_approach" : 1437548400000,
        "relative_velocity" : {
          "kilometers_per_second" : "14.9489031944",
          "kilometers_per_hour" : "53816.0514996773",
          "miles_per_hour" : "33439.2015554523"
        },
        "miss_distance" : {
          "astronomical" : "0.3518690688",
          "lunar" : "136.8770751953",
          "kilometers" : "52638864",
          "miles" : "32708274"
        },
        "orbiting_body" : "Earth"
      } ],
      "orbital_data" : {
        "orbit_id" : "38",
        "orbit_determination_date" : "2017-03-04 06:17:16",
        "orbit_uncertainty" : "0",
        "minimum_orbit_intersection" : ".0579819",
        "jupiter_tisserand_invariant" : "4.284",
        "epoch_osculation" : "2457800.5",
        "eccentricity" : ".5879997755078575",
        "semi_major_axis" : "1.523442961193881",
        "inclination" : "7.195137502594071",
        "ascending_node_longitude" : "200.0600617244527",
        "orbital_period" : "686.811763026925",
        "perihelion_distance" : ".6276588420128532",
        "perihelion_argument" : "61.27672976034135",
        "aphelion_distance" : "2.419227080374908",
        "perihelion_time" : "2457891.708346953432",
        "mean_anomaly" : "312.1921337536145",
        "mean_motion" : ".5241610866031235",
        "equinox" : "J2000"
      }
    } ]
  }
}